NORAD_CAT_ID,OBJECT_NAME,OBJECT_TYPE,EPOCH,MEAN_MOTION,ECCENTRICITY,INCLINATION,RA_OF_ASC_NODE,ARG_OF_PERICENTER,MEAN_ANOMALY,BSTAR,MEAN_MOTION_DOT,MEAN_MOTION_DDOT,TLE_LINE0,TLE_LINE1,TLE_LINE2,SEMIMAJOR_AXIS,PERIOD,APOGEE,PERIGEE,DECAYED
50849.0,STARLINK-3311,PAYLOAD,2022-04-02 22:00:01,15.08841071,0.0001908,53.2145,149.0299,35.0369,298.8801,-0.0036301,-0.00057602,0.0,0 STARLINK-3311,1 50849U 22001AY  22092.91668981 -.00057602  00000-0 -36301-2 0  9991,2 50849  53.2145 149.0299 0001908  35.0369 298.8801 15.08841071  3572,6917.877,95.437,541.062,538.422,0.0
50849.0,STARLINK-3311,PAYLOAD,2022-04-03 04:00:00,15.08801982,0.000186,53.2152,147.9075,37.7837,214.7545,0.00046689,7.143e-05,0.0,0 STARLINK-3311,1 50849U 22001AY  22093.16667824  .00007143  00000-0  46689-3 0  9998,2 50849  53.2152 147.9075 0001860  37.7837 214.7545 15.08801982 14600,6917.996999999999,95.44,541.148,538.575,0.0
50849.0,STARLINK-3311,PAYLOAD,2022-04-03 22:00:00,15.08800435,0.0001908,53.2161,144.5409,35.3694,333.1558,0.0015462,0.00024379,0.0,0 STARLINK-3311,1 50849U 22001AY  22093.91667824  .00024379  00000-0  15462-2 0  9995,2 50849  53.2161 144.5409 0001908  35.3694 333.1558 15.08800435  3590,6918.001,95.44,541.186,538.5459999999998,0.0
50849.0,STARLINK-3311,PAYLOAD,2022-04-04 06:00:02,15.08836014,0.0001941,53.2161,143.045,36.9428,343.1949,-0.0010837,-0.00017492,0.0,0 STARLINK-3311,1 50849U 22001AY  22094.25002315 -.00017492  00000-0 -10837-2 0  9992,2 50849  53.2161 143.0450 0001941  36.9428 343.1949 15.08836014 14767,6917.893,95.438,541.1,538.415,0.0
50849.0,STARLINK-3311,PAYLOAD,2022-04-04 14:00:01,15.08806832,0.0002136,53.2157,141.5499,33.1182,358.5434,0.0032854,0.00052341,0.0,0 STARLINK-3311,1 50849U 22001AY  22094.58334491  .00052341  00000-0  32854-2 0  9994,2 50849  53.2157 141.5499 0002136  33.1182 358.5434 15.08806832  3628,6917.982,95.44,541.3240000000002,538.369,0.0
50849.0,STARLINK-3311,PAYLOAD,2022-04-04 22:00:00,15.08829081,0.0001965,53.2156,140.0516,36.7225,6.5314,0.0022108,0.00035062,0.0,0 STARLINK-3311,1 50849U 22001AY  22094.91667824  .00035062  00000-0  22108-2 0  9992,2 50849  53.2156 140.0516 0001965  36.7225   6.5314 15.08829081  3614,6917.9140000000025,95.438,541.138,538.419,0.0
50849.0,STARLINK-3311,PAYLOAD,2022-04-05 00:00:00,15.08824982,0.0001955,53.2154,139.6772,37.364,98.7904,0.0033995,0.0005421,0.0,0 STARLINK-3311,1 50849U 22001AY  22095.00001157  .00054210  00000-0  33995-2 0  9996,2 50849  53.2154 139.6772 0001955  37.3640  98.7904 15.08824982 14870,6917.926,95.439,541.144,538.439,0.0
50849.0,STARLINK-3311,PAYLOAD,2022-04-05 14:00:01,15.08850928,0.0002193,53.2156,137.0604,32.3241,34.1962,0.00013601,1.878e-05,0.0,0 STARLINK-3311,1 50849U 22001AY  22095.58335648  .00001878  00000-0  13601-3 0  9999,2 50849  53.2156 137.0604 0002193  32.3241  34.1962 15.08850928  3577,6917.847,95.437,541.229,538.195,0.0
50849.0,STARLINK-3311,PAYLOAD,2022-04-05 16:00:00,15.08875088,0.0002175,53.2154,136.6859,32.1311,127.2228,-0.0035802,-0.00056874,0.0,0 STARLINK-3311,1 50849U 22001AY  22095.66667824 -.00056874  00000-0 -35802-2 0  9996,2 50849  53.2154 136.6859 0002175  32.1311 127.2228 15.08875088 14977,6917.773,95.435,541.143,538.134,0.0
50849.0,STARLINK-3311,PAYLOAD,2022-04-05 22:00:00,15.08820866,0.0001939,53.2158,135.5621,32.5907,45.4872,-0.00036329,-6.062e-05,0.0,0 STARLINK-3311,1 50849U 22001AY  22095.91667824 -.00006062  00000-0 -36329-3 0  9994,2 50849  53.2158 135.5621 0001939  32.5907  45.4872 15.08820866  3628,6917.939,95.439,541.145,538.462,0.0
50849.0,STARLINK-3311,PAYLOAD,2022-04-06 14:00:01,15.08808066,0.0002228,53.216,132.5712,29.9067,71.3181,0.0028832,0.00045858,0.0,0 STARLINK-3311,1 50849U 22001AY  22096.58334491  .00045858  00000-0  28832-2 0  9992,2 50849  53.2160 132.5712 0002228  29.9067  71.3181 15.08808066 15114,6917.978,95.44,541.384,538.302,0.0
50849.0,STARLINK-3311,PAYLOAD,2022-04-06 22:00:00,15.08815358,0.0002036,53.2163,131.07299999999998,33.2389,79.5714,0.0025841,0.0004105,0.0,0 STARLINK-3311,1 50849U 22001AY  22096.91667824  .00041050  00000-0  25841-2 0  9995,2 50849  53.2163 131.0730 0002036  33.2389  79.5714 15.08815358  3619,6917.956,95.439,541.229,538.4119999999998,0.0
50849.0,STARLINK-3311,PAYLOAD,2022-04-07 06:00:00,15.08857116,0.0002176,53.2166,129.5774,34.6764,89.7114,-0.0015044,-0.00024163,0.0,0 STARLINK-3311,1 50849U 22001AY  22097.25001157 -.00024163  00000-0 -15044-2 0  9996,2 50849  53.2166 129.5774 0002176  34.6764  89.7114 15.08857116 15213,6917.828,95.436,541.198,538.188,0.0
50849.0,STARLINK-3311,PAYLOAD,2022-04-07 14:00:01,15.08833044,0.0002334,53.2166,128.082,31.2194,104.7732,0.0023303,0.00036987,0.0,0 STARLINK-3311,1 50849U 22001AY  22097.58334491  .00036987  00000-0  23303-2 0  9994,2 50849  53.2166 128.0820 0002334  31.2194 104.7732 15.08833044  3603,6917.901999999999,95.438,541.381,538.1519999999998,0.0
50849.0,STARLINK-3311,PAYLOAD,2022-04-07 20:00:01,15.08861817,0.0002152,53.217,126.9582,33.6939,21.0036,-0.0014584,-0.00023438,0.0,0 STARLINK-3311,1 50849U 22001AY  22097.83334491 -.00023438  00000-0 -14584-2 0  9992,2 50849  53.2170 126.9582 0002152  33.6939  21.0036 15.08861817 15308,6917.814,95.436,541.1669999999998,538.19,0.0
50849.0,STARLINK-3311,PAYLOAD,2022-04-07 22:00:00,15.08849191,0.0002102,53.217,126.5838,33.8502,113.7569,2.2407e-05,6.8e-07,0.0,0 STARLINK-3311,1 50849U 22001AY  22097.91667824  .00000068  00000-0  22407-4 0  9997,2 50849  53.2170 126.5838 0002102  33.8502 113.7569 15.08849191  3567,6917.852,95.437,541.1709999999998,538.263,0.0
50849.0,STARLINK-3311,PAYLOAD,2022-04-08 14:00:03,15.08838082,0.0002333,53.217,123.5927,30.3963,140.5437,0.0017934,0.00028368,0.0,0 STARLINK-3311,1 50849U 22001AY  22098.58336806  .00028368  00000-0  17934-2 0  9994,2 50849  53.2170 123.5927 0002333  30.3963 140.5437 15.08838082 15418,6917.886,95.438,541.365,538.137,0.0
50849.0,STARLINK-3311,PAYLOAD,2022-04-08 22:00:00,15.08838539,0.0002074,53.2173,122.0947,32.7109,149.7159,5.0556e-05,5.16e-06,0.0,0 STARLINK-3311,1 50849U 22001AY  22098.91667824  .00000516  00000-0  50556-4 0  9992,2 50849  53.2173 122.0947 0002074  32.7109 149.7159 15.08838539  3570,6917.885,95.438,541.185,538.315,0.0
50849.0,STARLINK-3311,PAYLOAD,2022-04-09 06:00:00,15.08843098,0.0002179,53.2176,120.5996,31.8598,162.1562,-0.0013152,-0.00021161,0.0,0 STARLINK-3311,1 50849U 22001AY  22099.25001157 -.00021161  00000-0 -13152-2 0  9991,2 50849  53.2176 120.5996 0002179  31.8598 162.1562 15.08843098 15518,6917.871,95.437,541.243,538.229,0.0
50849.0,STARLINK-3311,PAYLOAD,2022-04-09 14:00:01,15.08831848,0.0002299,53.2172,119.1038,29.8552,175.7453,0.00083826,0.00013075,0.0,0 STARLINK-3311,1 50849U 22001AY  22099.58334491  .00013075  00000-0  83826-3 0  9996,2 50849  53.2172 119.1038 0002299  29.8552 175.7453 15.08831848  3601,6917.905,95.438,541.361,538.18,0.0
50849.0,STARLINK-3311,PAYLOAD,2022-04-09 22:00:00,15.08821602,0.0002072,53.2173,117.6058,33.6484,183.5556,0.0029444,0.00046861,0.0,0 STARLINK-3311,1 50849U 22001AY  22099.91667824  .00046861  00000-0  29444-2 0  9996,2 50849  53.2173 117.6058 0002072  33.6484 183.5556 15.08821602 15615,6917.937,95.439,541.235,538.368,0.0
50849.0,STARLINK-3311,PAYLOAD,2022-04-10 14:00:01,15.08867483,0.0002268,53.2169,114.6148,31.0481,209.3537,-0.0021295,-0.00034046,0.0,0 STARLINK-3311,1 50849U 22001AY  22100.58334491 -.00034046  00000-0 -21295-2 0  9993,2 50849  53.2169 114.6148 0002268  31.0481 209.3537 15.08867483 15728,6917.795999999999,95.436,541.23,538.092,0.0
50849.0,STARLINK-3311,PAYLOAD,2022-04-10 22:00:00,15.08820121,0.0002037,53.2169,113.1168,33.6554,218.3765,0.0027149,0.00043161,0.0,0 STARLINK-3311,1 50849U 22001AY  22100.91667824  .00043161  00000-0  27149-2 0  9999,2 50849  53.2169 113.1168 0002037  33.6554 218.3765 15.08820121  3602,6917.941,95.439,541.215,538.3969999999998,0.0
50849.0,STARLINK-3311,PAYLOAD,2022-04-11 04:00:01,15.08856492,0.0002111,53.2172,111.9955,34.1251,136.6515,-0.0014797,-0.00023772,0.0,0 STARLINK-3311,1 50849U 22001AY  22101.16668981 -.00023772  00000-0 -14797-2 0  9995,2 50849  53.2172 111.9955 0002111  34.1251 136.6515 15.08856492 15809,6917.83,95.437,541.155,538.235,0.0
50849.0,STARLINK-3311,PAYLOAD,2022-04-11 14:00:01,15.08864215,0.0002232,53.2165,110.1258,30.4073,244.8015,-0.0029084,-0.00046311,0.0,0 STARLINK-3311,1 50849U 22001AY  22101.58334491 -.00046311  00000-0 -29084-2 0  9996,2 50849  53.2165 110.1258 0002232  30.4073 244.8015 15.08864215  3607,6917.806,95.436,541.215,538.127,0.0
50849.0,STARLINK-3311,PAYLOAD,2022-04-11 22:00:00,15.08821792,0.0002137,53.2169,108.6303,38.9503,247.8642,-0.00074956,-0.00012192,0.0,0 STARLINK-3311,1 50849U 22001AY  22101.91667824 -.00012192  00000-0 -74956-3 0  9991,2 50849  53.2169 108.6303 0002137  38.9503 247.8642 15.08821792  3588,6917.936,95.439,541.279,538.323,0.0
50849.0,STARLINK-3311,PAYLOAD,2022-04-12 04:00:00,15.08837796,0.0002281,53.2166,107.5067,38.6668,166.8189,-0.0015468,-0.00024821,0.0,0 STARLINK-3311,1 50849U 22001AY  22102.16667824 -.00024821  00000-0 -15468-2 0  9993,2 50849  53.2166 107.5067 0002281  38.6668 166.8189 15.08837796 15950,6917.887,95.438,541.33,538.174,0.0
50849.0,STARLINK-3311,PAYLOAD,2022-04-12 14:00:01,15.08837539,0.0002408,53.2161,105.6366,35.6617,274.2919,-0.0011536,-0.00018601,0.0,0 STARLINK-3311,1 50849U 22001AY  22102.58334491 -.00018601  00000-0 -11536-2 0  9991,2 50849  53.2161 105.6366 0002408  35.6617 274.2919 15.08837539  3607,6917.888000000001,95.438,541.419,538.087,0.0
50849.0,STARLINK-3311,PAYLOAD,2022-04-12 20:00:01,15.08810994,0.0002284,53.2168,104.516,39.2919,189.3579,0.0022647,0.00035911,0.0,0 STARLINK-3311,1 50849U 22001AY  22102.83334491  .00035911  00000-0  22647-2 0  9995,2 50849  53.2168 104.5160 0002284  39.2919 189.3579 15.08810994 16058,6917.969,95.439,541.414,538.254,0.0
